[Satellite]
VERSION=1.1
NAME=FORMOSAT 3A
NICKNAME=FORMOSAT 3A
TLE1=1 29047U 06011A   15055.20392129  .00000271  00000-0  12336-3 0  9992
TLE2=2 29047  71.9796 108.9355 0050250 169.9052 190.3106 14.28253409464257
